MEAN_MOTION;ECCENTRICITY;INCLINATION;RA_OF_ASC_NODE;ARG_OF_PERICENTER;MEAN_ANOMALY;BSTAR;MEAN_MOTION_DOT;MEAN_MOTION_DDOT;TYPE
14.34217003;0.000164;86.3973;318.0548;77.6179;282.5201;1.5278E-5;6.3E-7;0;Iridium
14.3421699;0.0001619;86.3972;317.8507;77.4162;282.7215;1.6127E-5;6.5E-7;0;Iridium
14.34216997;0.0001618;86.3971;317.8215;77.2844;282.8532;1.6251E-5;6.5E-7;0;Iridium
14.34216886;0.0001555;86.3971;317.6172;71.893;288.2435;-2.8124E-6;1.2E-7;0;Iridium
14.34217061;0.0001587;86.3969;317.2675;78.6683;281.4691;1.2288E-5;5.4E-7;0;Iridium
14.34217073;0.0001584;86.3969;317.2091;78.8857;281.2517;1.2698E-5;5.5E-7;0;Iridium
14.34217122;0.0001577;86.3968;317.0341;79.3918;280.7455;1.5581E-5;6.3E-7;0;Iridium
14.34217182;0.0001574;86.3967;316.8591;79.6965;280.4408;1.7975E-5;7.0E-7;0;Iridium
14.34217227;0.0001562;86.3967;316.6549;80.3559;279.7813;1.9306E-5;7.4E-7;0;Iridium
14.34217279;0.0001552;86.3965;316.4216;80.9724;279.1647;1.9381E-5;7.4E-7;0;Iridium
14.34217279;0.0001552;86.3965;316.4216;80.9724;279.1647;1.9381E-5;7.4E-7;0;Iridium
14.34217548;0.0001537;86.3964;316.0132;82.3096;277.8274;2.6889E-5;9.5E-7;0;Iridium
14.34217551;0.0001526;86.3962;315.6923;83.5461;276.5909;2.3814E-5;8.6E-7;0;Iridium
14.34217533;0.0001521;86.3962;315.6049;83.7202;276.4167;2.2063E-5;8.2E-7;0;Iridium
14.34217583;0.0001518;86.3962;315.4883;84.4551;275.6818;2.3117E-5;8.5E-7;0;Iridium
14.34217687;0.0001516;86.396;315.1965;85.3605;274.7764;2.2731E-5;8.3E-7;0;Iridium
14.34217672;0.0001518;86.3959;315.1381;85.2478;274.8891;2.0279E-5;7.7E-7;0;Iridium
14.34217827;0.0001518;86.3957;314.7003;86.7792;273.3578;1.9502E-5;7.4E-7;0;Iridium
14.3421793;0.0001534;86.3955;314.3795;88.1;272.0371;1.915E-5;7.3E-7;0;Iridium
14.34217959;0.0001538;86.3955;314.3503;88.2294;271.9077;1.9983E-5;7.6E-7;0;Iridium
14.34217972;0.0001544;86.3955;314.2629;88.405;271.7323;1.9232E-5;7.4E-7;0;Iridium
14.34218069;0.0001548;86.3954;313.9419;89.1191;271.0182;1.9076E-5;7.3E-7;0;Iridium
14.34218029;0.0001548;86.3953;313.7961;89.5946;270.5428;1.3078E-5;5.6E-7;0;Iridium
14.34218088;0.0001551;86.3952;313.5335;90.2917;269.8456;1.2971E-5;5.6E-7;0;Iridium
14.34218108;0.0001557;86.3952;313.3876;90.9965;269.1409;1.1643E-5;5.2E-7;0;Iridium
14.34218191;0.0001558;86.3951;313.125;91.6317;268.5057;1.3871E-5;5.9E-7;0;Iridium
14.342182;0.0001558;86.3951;313.0958;91.7469;268.3905;1.3521E-5;5.8E-7;0;Iridium
14.34218244;0.0001562;86.395;312.9499;92.2468;267.8907;1.59E-5;6.4E-7;0;Iridium
14.34218347;0.000157;86.3949;312.6873;92.9177;267.2199;1.9074E-5;7.3E-7;0;Iridium
14.34218372;0.0001577;86.3949;312.5414;93.4635;266.6742;1.9098E-5;7.3E-7;0;Iridium
14.34218498;0.0001583;86.3948;312.2787;94.2055;265.9321;2.384E-5;8.7E-7;0;Iridium
14.34218517;0.0001585;86.3948;312.2496;94.2613;265.8764;2.431E-5;8.8E-7;0;Iridium
14.34218521;0.0001586;86.3948;312.2204;94.3683;265.7694;2.4098E-5;8.7E-7;0;Iridium
14.34218537;0.0001598;86.3947;311.841;95.3223;264.8155;1.995E-5;7.6E-7;0;Iridium
14.34218566;0.0001605;86.3946;311.7243;95.9717;264.1662;2.1297E-5;7.9E-7;0;Iridium
14.34218599;0.0001618;86.3945;311.4324;96.5085;263.6295;1.8392E-5;7.1E-7;0;Iridium
14.34218611;0.0001626;86.3945;311.2865;97.0438;263.0943;1.8728E-5;7.2E-7;0;Iridium
14.34218656;0.0001641;86.3944;311.0238;97.432;262.7062;1.8E-5;7.0E-7;0;Iridium
14.34218691;0.0001652;86.3944;310.8779;97.9665;262.1718;1.9345E-5;7.4E-7;0;Iridium
14.34218793;0.0001668;86.3942;310.6153;98.3212;261.8173;2.1911E-5;8.1E-7;0;Iridium
14.3421885;0.0001682;86.3942;310.4401;98.8313;261.3073;2.2678E-5;8.3E-7;0;Iridium
14.34219007;0.0001696;86.394;310.1774;99.276;260.8628;2.767E-5;9.7E-7;0;Iridium
14.34219071;0.0001705;86.394;310.0315;99.7773;260.3616;2.9518E-5;1.02E-6;0;Iridium
14.3421913;0.0001721;86.3939;309.7688;100.095;260.044;2.5564E-5;9.1E-7;0;Iridium
14.34219191;0.0001733;86.3939;309.6228;100.5516;259.5875;2.7814E-5;9.8E-7;0;Iridium
14.34219266;0.0001749;86.3937;309.3601;100.9024;259.2369;2.4887E-5;8.9E-7;0;Iridium
14.34219277;0.0001752;86.3937;309.3309;100.9508;259.1885;2.4363E-5;8.8E-7;0;Iridium
14.342193;0.0001762;86.3937;309.185;101.1856;258.9538;2.3156E-5;8.5E-7;0;Iridium
14.34219322;0.0001778;86.3935;308.9223;101.5761;258.5635;1.7485E-5;6.9E-7;0;Iridium
14.34219322;0.0001778;86.3935;308.9223;101.5761;258.5635;1.7485E-5;6.9E-7;0;Iridium
14.34219338;0.0001788;86.3935;308.7763;101.8967;258.2429;1.6726E-5;6.7E-7;0;Iridium
14.34219319;0.000179;86.3935;308.7179;101.9856;258.154;1.3141E-5;5.7E-7;0;Iridium
14.34219288;0.000182;86.3933;308.28;102.6153;257.5246;4.8251E-6;3.3E-7;0;Iridium
14.34219247;0.0001835;86.3933;308.1049;102.7777;257.3624;1.0533E-6;2.3E-7;0;Iridium
14.342192;0.000185;86.3932;307.9297;103.0418;257.0984;-1.6483E-6;1.5E-7;0;Iridium
14.34219132;0.0001755;86.3933;307.6961;99.5895;260.5499;-1.4179E-6;1.6E-7;0;Iridium
14.3421912;0.0001771;86.3933;307.4625;99.94;260.1995;-2.2294E-6;1.4E-7;0;Iridium
14.34217581;0.0001885;86.3931;307.0243;101.8117;258.3291;-2.391E-6;1.3E-7;0;Iridium
14.34217652;0.0001861;86.393;306.8491;101.5955;258.5449;-2.212E-6;1.4E-7;0;Iridium
14.34217622;0.0001866;86.3931;306.6741;101.2991;258.8415;-1.9994E-6;1.4E-7;0;Iridium
14.34217431;0.0001873;86.3928;306.4114;100.5849;259.5558;-2.3348E-5;-4.6E-7;0;Iridium
14.34217438;0.0001872;86.3928;306.3821;100.5232;259.6175;-2.1908E-5;-4.2E-7;0;Iridium
14.3421749;0.0001889;86.3928;306.2654;100.7279;259.4129;-1.3983E-5;-1.9E-7;0;Iridium
14.34217472;0.000191;86.3928;305.9735;100.9144;259.2266;-1.1779E-5;-1.3E-7;0;Iridium
14.34217429;0.0001942;86.3927;305.5355;101.3741;258.7673;-9.9892E-6;-8.0E-8;0;Iridium
14.34217436;0.0001954;86.3926;305.4187;101.4859;258.6557;-8.4738E-6;-4.0E-8;0;Iridium
14.3421743;0.0001971;86.3926;305.1559;101.4346;258.7071;-7.2213E-6;0;0;Iridium
14.34217441;0.0001987;86.3926;305.0098;101.7497;258.3922;-5.7127E-6;4.0E-8;0;Iridium
14.34217435;0.0002009;86.3925;304.747;101.7953;258.3469;-5.1186E-6;5.0E-8;0;Iridium
14.34217431;0.0002012;86.3925;304.7178;101.8306;258.3116;-5.2015E-6;5.0E-8;0;Iridium
14.34217392;0.0002057;86.3925;304.163;102.0712;258.0714;-4.3618E-6;8.0E-8;0;Iridium
14.34217351;0.0002077;86.3925;303.871;101.9429;258.1999;-5.3363E-6;5.0E-8;0;Iridium
14.34217273;0.0002109;86.3924;303.4914;102.0012;258.142;-7.493E-6;-1.0E-8;0;Iridium
14.34217257;0.0002122;86.3925;303.3454;102.0843;258.059;-7.2457E-6;-1.0E-8;0;Iridium
14.34217202;0.0002138;86.3925;303.0534;102.0107;258.1329;-9.0077E-6;-5.0E-8;0;Iridium
14.34217195;0.0002152;86.3924;302.9074;102.026;258.1178;-8.4916E-6;-4.0E-8;0;Iridium
14.34217198;0.0002165;86.3924;302.6446;101.6319;258.512;-7.5174E-6;-1.0E-8;0;Iridium
14.34217193;0.000218;86.3924;302.4985;101.6479;258.4961;-6.933E-6;0;0;Iridium
14.342172;0.0002204;86.3924;302.2065;101.6088;258.5355;-6.0375E-6;3.0E-8;0;Iridium
14.34217198;0.0002213;86.3924;302.0897;101.5055;258.639;-5.5526E-6;4.0E-8;0;Iridium
14.34217227;0.0002233;86.3923;301.7977;101.366;258.7787;-3.7191E-6;9.0E-8;0;Iridium
14.34217227;0.0002233;86.3923;301.7977;101.366;258.7787;-3.7191E-6;9.0E-8;0;Iridium
14.34217203;0.0002242;86.3923;301.6517;101.2453;258.8995;-4.525E-6;7.0E-8;0;Iridium
14.34217184;0.0002254;86.3922;301.4181;100.9966;259.1483;-4.7576E-6;6.0E-8;0;Iridium
14.34217189;0.0002267;86.3922;301.3013;101.1919;258.9532;-3.9416E-6;9.0E-8;0;Iridium
14.34217127;0.0002281;86.3922;300.98;100.5543;259.5909;-6.2059E-6;2.0E-8;0;Iridium
14.34217126;0.000229;86.3922;300.834;100.4487;259.6967;-5.5596E-6;4.0E-8;0;Iridium
14.34217075;0.0002305;86.3921;300.5127;100.0154;260.1302;-6.8549E-6;1.0E-8;0;Iridium
14.3421706;0.0002314;86.3921;300.3959;99.849;260.2967;-7.2081E-6;0;0;Iridium
14.34217026;0.000233;86.3921;300.1331;99.6422;260.5037;-7.7432E-6;-2.0E-8;0;Iridium
14.34217022;0.0002342;86.3921;299.987;99.5869;260.5592;-7.0827E-6;0;0;Iridium
14.34217061;0.0002371;86.3921;299.7242;99.4965;260.6499;-4.5522E-6;7.0E-8;0;Iridium
14.34217056;0.0002378;86.3921;299.5782;99.2325;260.914;-3.9106E-6;9.0E-8;0;Iridium
14.3421702;0.00024;86.3922;299.1693;98.7281;261.4186;-3.4225E-6;1.0E-7;0;Iridium
14.34217008;0.00024;86.3922;299.1401;98.6704;261.4763;-4.02E-6;9.0E-8;0;Iridium
14.3421697;0.0002413;86.3922;298.9064;98.3481;261.7988;-4.9056E-6;6.0E-8;0;Iridium
14.34216936;0.0002423;86.3922;298.7312;98.1964;261.9506;-5.7413E-6;4.0E-8;0;Iridium
14.34216856;0.000244;86.3923;298.4685;97.8725;262.2748;-8.6402E-6;-4.0E-8;0;Iridium
14.34216856;0.000244;86.3923;298.4685;97.8725;262.2748;-8.6402E-6;-4.0E-8;0;Iridium
14.3421683;0.0002447;86.3923;298.3225;97.7449;262.4024;-8.7632E-6;-5.0E-8;0;Iridium
14.34216778;0.0002459;86.3924;298.0597;97.2793;262.8683;-9.667E-6;-7.0E-8;0;Iridium
14.34216788;0.000246;86.3924;298.0305;97.2294;262.9181;-9.1223E-6;-6.0E-8;0;Iridium
14.34216776;0.0002467;86.3924;297.8844;97.1638;262.9838;-9.1162E-6;-6.0E-8;0;Iridium
14.34216782;0.0002483;86.3924;297.6215;96.9369;263.2109;-7.8715E-6;-2.0E-8;0;Iridium
14.34216779;0.0002492;86.3925;297.4755;96.8168;263.3311;-7.3141E-6;-1.0E-8;0;Iridium
14.34216774;0.0002507;86.3925;297.2127;96.2644;263.8837;-5.9644E-6;3.0E-8;0;Iridium
14.34216774;0.0002507;86.3925;297.2127;96.2644;263.8837;-5.9644E-6;3.0E-8;0;Iridium
14.3421676;0.0002516;86.3925;297.0667;96.3568;263.7914;-5.8136E-6;4.0E-8;0;Iridium
14.34216686;0.0002523;86.3925;296.8039;95.9403;264.2081;-8.6662E-6;-4.0E-8;0;Iridium
14.34216658;0.000253;86.3925;296.6287;95.6366;264.5119;-9.1698E-6;-6.0E-8;0;Iridium
14.34216628;0.0002541;86.3925;296.3951;95.3028;264.8457;-9.4894E-6;-7.0E-8;0;Iridium
14.34216592;0.0002548;86.3926;296.2199;95.2328;264.9158;-1.042E-5;-9.0E-8;0;Iridium
14.34216559;0.000256;86.3925;295.9571;94.8725;265.2763;-1.0734E-5;-1.0E-7;0;Iridium
14.34216559;0.000256;86.3925;295.9571;94.8725;265.2763;-1.0734E-5;-1.0E-7;0;Iridium
14.34216534;0.0002568;86.3926;295.8111;94.788;265.3609;-1.1048E-5;-1.1E-7;0;Iridium
14.34216523;0.0002575;86.3926;295.5483;94.3118;265.8372;-1.0286E-5;-9.0E-8;0;Iridium
14.34216629;0.0002585;86.3926;295.1103;93.5998;266.5493;-3.2151E-6;1.1E-7;0;Iridium
14.3421675;0.0002696;86.3929;294.7304;95.8937;264.2566;4.8821E-6;3.3E-7;0;Iridium
